{
  "links" : {
    "next" : "https://api.nasa.gov/neo/rest/v1/feed?start_date=2005-01-23&end_date=2005-01-23&detailed=true&api_key=t0TVs3DtDT2H8Oy2Zy8m2eVrNsAVKAexjcZXUckd",
    "prev" : "https://api.nasa.gov/neo/rest/v1/feed?start_date=2005-01-21&end_date=2005-01-21&detailed=true&api_key=t0TVs3DtDT2H8Oy2Zy8m2eVrNsAVKAexjcZXUckd",
    "self" : "https://api.nasa.gov/neo/rest/v1/feed?start_date=2005-01-22&end_date=2005-01-22&detailed=true&api_key=t0TVs3DtDT2H8Oy2Zy8m2eVrNsAVKAexjcZXUckd"
  },
  "element_count" : 2,
  "near_earth_objects" : {
    "2005-01-22" : [ {
      "links" : {
        "self" : "https://api.nasa.gov/neo/rest/v1/neo/3092314?api_key=t0TVs3DtDT2H8Oy2Zy8m2eVrNsAVKAexjcZXUckd"
      },
      "neo_reference_id" : "3092314",
      "name" : "(2001 QO142)",
      "nasa_jpl_url" : "http://ssd.jpl.nasa.gov/sbdb.cgi?sstr=3092314",
      "absolute_magnitude_h" : 19.3,
      "estimated_diameter" : {
        "kilometers" : {
          "estimated_diameter_min" : 0.3669061375,
          "estimated_diameter_max" : 0.8204270649
        },
        "meters" : {
          "estimated_diameter_min" : 366.9061375314,
          "estimated_diameter_max" : 820.4270648822
        },
        "miles" : {
          "estimated_diameter_min" : 0.2279848336,
          "estimated_diameter_max" : 0.5097895857
        },
        "feet" : {
          "estimated_diameter_min" : 1203.7603322587,
          "estimated_diameter_max" : 2691.6899315481
        }
      },
      "is_potentially_hazardous_asteroid" : false,
      "close_approach_data" : [ {
        "close_approach_date" : "2005-01-22",
        "epoch_date_close_approach" : 1106380800000,
        "relative_velocity" : {
          "kilometers_per_second" : "22.2263567223",
          "kilometers_per_hour" : "80014.8842002739",
          "miles_per_hour" : "49718.1373521091"
        },
        "miss_distance" : {
          "astronomical" : "0.4297947388",
          "lunar" : "167.1901550293",
          "kilometers" : "64296376",
          "miles" : "39951916"
        },
        "orbiting_body" : "Earth"
      } ],
      "orbital_data" : {
        "orbit_id" : "21",
        "orbit_determination_date" : "2017-04-06 09:16:11",
        "orbit_uncertainty" : "1",
        "minimum_orbit_intersection" : ".0873315",
        "jupiter_tisserand_invariant" : "3.293",
        "epoch_osculation" : "2458000.5",
        "eccentricity" : ".7453155845470232",
        "semi_major_axis" : "2.128857545342137",
        "inclination" : "5.494165287725116",
        "ascending_node_longitude" : "262.1428457309307",
        "orbital_period" : "1134.536124220626",
        "perihelion_distance" : ".5421868395181213",
        "perihelion_argument" : "200.1464740734477",
        "aphelion_distance" : "3.715528251166153",
        "perihelion_time" : "2457919.325600628833",
        "mean_anomaly" : "25.75747316436903",
        "mean_motion" : ".3173103018181139",
        "equinox" : "J2000"
      }
    }, {
      "links" : {
        "self" : "https://api.nasa.gov/neo/rest/v1/neo/3635077?api_key=t0TVs3DtDT2H8Oy2Zy8m2eVrNsAVKAexjcZXUckd"
      },
      "neo_reference_id" : "3635077",
      "name" : "(2013 HO11)",
      "nasa_jpl_url" : "http://ssd.jpl.nasa.gov/sbdb.cgi?sstr=3635077",
      "absolute_magnitude_h" : 23.0,
      "estimated_diameter" : {
        "kilometers" : {
          "estimated_diameter_min" : 0.0667659413,
          "estimated_diameter_max" : 0.1492931834
        },
        "meters" : {
          "estimated_diameter_min" : 66.7659413495,
          "estimated_diameter_max" : 149.2931834393
        },
        "miles" : {
          "estimated_diameter_min" : 0.0414864197,
          "estimated_diameter_max" : 0.0927664547
        },
        "feet" : {
          "estimated_diameter_min" : 219.0483710172,
          "estimated_diameter_max" : 489.807047955
        }
      },
      "is_potentially_hazardous_asteroid" : false,
      "close_approach_data" : [ {
        "close_approach_date" : "2005-01-22",
        "epoch_date_close_approach" : 1106380800000,
        "relative_velocity" : {
          "kilometers_per_second" : "8.7902516628",
          "kilometers_per_hour" : "31644.9059862554",
          "miles_per_hour" : "19662.9139446263"
        },
        "miss_distance" : {
          "astronomical" : "0.4931733684",
          "lunar" : "191.8444366455",
          "kilometers" : "73777688",
          "miles" : "45843328"
        },
        "orbiting_body" : "Earth"
      } ],
      "orbital_data" : {
        "orbit_id" : "22",
        "orbit_determination_date" : "2017-04-06 08:46:03",
        "orbit_uncertainty" : "5",
        "minimum_orbit_intersection" : ".00595383",
        "jupiter_tisserand_invariant" : "5.286",
        "epoch_osculation" : "2458000.5",
        "eccentricity" : ".23408163157833",
        "semi_major_axis" : "1.194534303944522",
        "inclination" : "3.718684574314978",
        "ascending_node_longitude" : "59.05328027184399",
        "orbital_period" : "476.8660078567918",
        "perihelion_distance" : ".9149157651009031",
        "perihelion_argument" : "245.9293020818884",
        "aphelion_distance" : "1.47415284278814",
        "perihelion_time" : "2457924.766235596258",
        "mean_anomaly" : "57.17361845077212",
        "mean_motion" : ".7549290452007056",
        "equinox" : "J2000"
      }
    } ]
  }
}